GLOBALSTAR M067 [+]     
1 32263U 07048A   24057.25596091 -.00000085  00000+0  94801-4 0  9999
2 32263  51.9757 351.4343 0001346  50.6112 114.3345 12.40638110750283
GLOBALSTAR M070 [+]     
1 32264U 07048B   24057.63904862 -.00000054  00000+0  27515-3 0  9994
2 32264  51.9742 140.2244 0001014 124.6602  23.3964 12.62287154753483
GLOBALSTAR M066 [+]     
1 32265U 07048C   24057.28456727 -.00000069  00000+0  19376-3 0  9990
2 32265  51.9703   3.3098 0000699 354.0748 169.8784 12.62260685755708
GLOBALSTAR M068 [-]     
1 32266U 07048D   24057.13107373 -.00000065  00000+0  21657-3 0  9996
2 32266  51.9902 316.4323 0001037 123.3464  24.2979 12.62780529757287
GLOBALSTAR M079 [+]     
1 37188U 10054A   24057.57784882 -.00000076  00000+0  15489-3 0  9997
2 37188  52.0029 150.6617 0000556  99.6621   4.4858 12.62266846616265
GLOBALSTAR M074 [+]     
1 37189U 10054B   24057.44056817 -.00000071  00000+0  18378-3 0  9999
2 37189  52.0007 150.4765 0000773 115.5861 324.0112 12.62265602616857
GLOBALSTAR M076 [+]     
1 37190U 10054C   24057.55201594 -.00000080  00000+0  13311-3 0  9999
2 37190  52.0020 150.2666 0000955  81.7953  23.5524 12.62274867616581
GLOBALSTAR M077 [+]     
1 37191U 10054D   24057.45938569 -.00000073  00000+0  16935-3 0  9995
2 37191  52.0066 107.2674 0000608 117.9932 346.2601 12.62269998616947
